NORAD_CAT_ID,OBJECT_NAME,OBJECT_TYPE,EPOCH,MEAN_MOTION,ECCENTRICITY,INCLINATION,RA_OF_ASC_NODE,ARG_OF_PERICENTER,MEAN_ANOMALY,BSTAR,MEAN_MOTION_DOT,MEAN_MOTION_DDOT,TLE_LINE0,TLE_LINE1,TLE_LINE2,SEMIMAJOR_AXIS,PERIOD,APOGEE,PERIGEE,DECAYED
53029.0,STARLINK-4143,PAYLOAD,2024-01-21 02:42:24,15.08839803,0.0001794,53.2182,329.2847,104.0139,256.1053,-2.5762e-05,-6.98e-06,0.0,0 STARLINK-4143,1 53029U 22076AV  24021.11278857 -.00000698  00000-0 -25762-4 0  9995,2 53029  53.2182 329.2847 0001794 104.0139 256.1053 15.08839803 86052,6917.881,95.438,540.987,538.505,0.0
53029.0,STARLINK-4143,PAYLOAD,2024-01-21 05:53:11,15.08841854,0.0001801,53.2184,328.6878,95.6873,264.4325,2.5636e-05,1.2e-06,0.0,0 STARLINK-4143,1 53029U 22076AV  24021.24526841  .00000120  00000-0  25636-4 0  9996,2 53029  53.2184 328.6878 0001801  95.6873 264.4325 15.08841854 85603,6917.875,95.437,540.986,538.494,0.0
53029.0,STARLINK-4143,PAYLOAD,2024-01-22 02:33:11,15.08850167,0.000179,53.2188,324.8239,86.0682,274.0515,0.0001787,2.558e-05,0.0,0 STARLINK-4143,1 53029U 22076AV  24022.10638506  .00002558  00000-0  17870-3 0  9991,2 53029  53.2188 324.8239 0001790  86.0682 274.0515 15.08850167 86207,6917.849,95.437,540.953,538.476,0.0
53029.0,STARLINK-4143,PAYLOAD,2024-01-22 05:43:57,15.08851653,0.0001814,53.2189,324.2281,94.8029,265.3171,0.00031187,4.68e-05,0.0,0 STARLINK-4143,1 53029U 22076AV  24022.23886500  .00004680  00000-0  31187-3 0  9999,2 53029  53.2189 324.2281 0001814  94.8029 265.3171 15.08851653 85759,6917.845,95.437,540.965,538.455,0.0
53029.0,STARLINK-4143,PAYLOAD,2024-01-23 02:23:59,15.08841384,0.0001566,53.2181,320.364,96.1888,263.9283,9.8537e-05,1.281e-05,0.0,0 STARLINK-4143,1 53029U 22076AV  24023.09998946  .00001281  00000-0  98537-4 0  9999,2 53029  53.2181 320.3640 0001566  96.1888 263.9283 15.08841384 86354,6917.876,95.437,540.824,538.658,0.0
53029.0,STARLINK-4143,PAYLOAD,2024-01-24 02:14:45,15.08850638,0.0001531,53.2185,315.9054,112.4743,247.6412,0.00017023,2.423e-05,0.0,0 STARLINK-4143,1 53029U 22076AV  24024.09358418  .00002423  00000-0  17023-3 0  9993,2 53029  53.2185 315.9054 0001531 112.4743 247.6412 15.08850638 86031,6917.848,95.437,540.772,538.654,0.0
53029.0,STARLINK-4143,PAYLOAD,2024-01-24 22:54:46,15.08839585,0.0001865,53.2183,312.0443,131.7724,228.3428,3.7381e-05,3.07e-06,0.0,0 STARLINK-4143,1 53029U 22076AV  24024.95470910  .00000307  00000-0  37381-4 0  9999,2 53029  53.2183 312.0443 0001865 131.7724 228.3428 15.08839585 86167,6917.882,95.438,541.037,538.456,0.0
53029.0,STARLINK-4143,PAYLOAD,2024-01-25 00:30:10,15.08840433,0.0001664,53.2183,311.7469,120.6432,239.4724,0.00011107,1.48e-05,0.0,0 STARLINK-4143,1 53029U 22076AV  24025.02095064  .00001480  00000-0  11107-3 0  9991,2 53029  53.2183 311.7469 0001664 120.6432 239.4724 15.08840433 86640,6917.879,95.438,540.895,538.593,0.0
53029.0,STARLINK-4143,PAYLOAD,2024-01-25 22:45:34,15.08836143,0.0001499,53.2176,307.5841,108.1268,251.9887,4.2544e-05,3.89e-06,0.0,0 STARLINK-4143,1 53029U 22076AV  24025.94831486  .00000389  00000-0  42544-4 0  9995,2 53029  53.2176 307.5841 0001499 108.1268 251.9887 15.08836143 86319,6917.892,95.438,540.794,538.72,0.0
53029.0,STARLINK-4143,PAYLOAD,2024-01-26 00:20:57,15.08837011,0.0001416,53.2173,307.2849,101.8804,258.2347,7.5882e-05,9.2e-06,0.0,0 STARLINK-4143,1 53029U 22076AV  24026.01455508  .00000920  00000-0  75882-4 0  9993,2 53029  53.2173 307.2849 0001416 101.8804 258.2347 15.08837011 86794,6917.89,95.438,540.734,538.775,0.0
53029.0,STARLINK-4143,PAYLOAD,2024-01-27 00:11:44,15.0884445,0.0001399,53.2158,302.818,77.9845,282.1304,0.00050943,7.83e-05,0.0,0 STARLINK-4143,1 53029U 22076AV  24027.00815771  .00007830  00000-0  50943-3 0  9992,2 53029  53.2158 302.8180 0001399  77.9845 282.1304 15.08844450 86473,6917.867,95.437,540.7,538.764,0.0
53029.0,STARLINK-4143,PAYLOAD,2024-01-27 17:40:58,15.08849339,0.0001569,53.2161,299.5564,110.2601,249.856,0.00022073,3.228e-05,0.0,0 STARLINK-4143,1 53029U 22076AV  24027.73679270  .00003228  00000-0  22073-3 0  9994,2 53029  53.2161 299.5564 0001569 110.2601 249.8560 15.08849339 87055,6917.852,95.437,540.802,538.631,0.0
53029.0,STARLINK-4143,PAYLOAD,2024-01-27 22:27:08,15.08847727,0.0001567,53.2161,298.663,109.8504,250.2657,0.00016166,2.286e-05,0.0,0 STARLINK-4143,1 53029U 22076AV  24027.93551214  .00002286  00000-0  16166-3 0  9992,2 53029  53.2161 298.6630 0001567 109.8504 250.2657 15.08847727 86616,6917.857,95.437,540.806,538.638,0.0
53029.0,STARLINK-4143,PAYLOAD,2024-01-28 01:37:54,15.0884992,0.0001516,53.2163,298.0688,98.1576,261.9588,0.00019124,2.758e-05,0.0,0 STARLINK-4143,1 53029U 22076AV  24028.06799141  .00002758  00000-0  19124-3 0  9991,2 53029  53.2163 298.0688 0001516  98.1576 261.9588 15.08849920 86639,6917.85,95.437,540.764,538.666,0.0
53029.0,STARLINK-4143,PAYLOAD,2024-01-28 22:17:55,15.08837693,0.0001726,53.2168,294.2032,93.337,266.782,4.6455e-05,4.51e-06,0.0,0 STARLINK-4143,1 53029U 22076AV  24028.92911832  .00000451  00000-0  46455-4 0  9995,2 53029  53.2168 294.2032 0001726  93.3370 266.7820 15.08837693 86767,6917.887,95.438,540.946,538.558,0.0
53029.0,STARLINK-4143,PAYLOAD,2024-01-28 23:53:18,15.08839808,0.00017,53.2172,293.9062,94.7073,265.4113,6.8714e-05,8.06e-06,0.0,0 STARLINK-4143,1 53029U 22076AV  24028.99535864  .00000806  00000-0  68714-4 0  9995,2 53029  53.2172 293.9062 0001700  94.7073 265.4113 15.08839808 87243,6917.881,95.438,540.922,538.57,0.0
53029.0,STARLINK-4143,PAYLOAD,2024-01-29 17:22:33,15.0884787,0.0001572,53.217,290.6339,98.516,261.6011,0.0001467,2.048e-05,0.0,0 STARLINK-4143,1 53029U 22076AV  24029.72399442  .00002048  00000-0  14670-3 0  9998,2 53029  53.2170 290.6339 0001572  98.5160 261.6011 15.08847870 86880,6917.856,95.437,540.809,538.634,0.0
53029.0,STARLINK-4143,PAYLOAD,2024-01-30 02:54:51,15.08856489,0.0001626,53.217,288.8528,88.512,271.6059,0.00032927,4.959e-05,0.0,0 STARLINK-4143,1 53029U 22076AV  24030.12142933  .00004959  00000-0  32927-3 0  9993,2 53029  53.2170 288.8528 0001626  88.5120 271.6059 15.08856489 87413,6917.83,95.437,540.82,538.57,0.0
53029.0,STARLINK-4143,PAYLOAD,2024-01-30 21:59:29,15.08840925,0.0002042,53.216,285.2774,125.7301,234.3881,6.8055e-06,-1.8e-06,0.0,0 STARLINK-4143,1 53029U 22076AV  24030.91631277 -.00000180  00000-0  68055-5 0  9990,2 53029  53.2160 285.2774 0002042 125.7301 234.3881 15.08840925 87062,6917.878,95.437,541.155,538.33,0.0
53029.0,STARLINK-4143,PAYLOAD,2024-01-31 17:04:06,15.08867372,0.0001467,53.2161,281.7139,102.0492,258.0664,-0.00079421,-0.00012915,0.0,0 STARLINK-4143,1 53029U 22076AV  24031.71118397 -.00012915  00000-0 -79421-3 0  9999,2 53029  53.2161 281.7139 0001467 102.0492 258.0664 15.08867372 87650,6917.797,95.436,540.677,538.647,0.0
53029.0,STARLINK-4143,PAYLOAD,2024-01-31 23:25:39,15.08857926,0.0001686,53.216,280.527,94.5746,265.5438,-0.00049298,-8.129e-05,0.0,0 STARLINK-4143,1 53029U 22076AV  24031.97614733 -.00008129  00000-0 -49298-3 0  9993,2 53029  53.2160 280.5270 0001686  94.5746 265.5438 15.08857926 87221,6917.826,95.436,540.857,538.524,0.0
53029.0,STARLINK-4143,PAYLOAD,2024-02-01 18:30:18,15.08836439,0.0001595,53.2161,276.9556,89.357,270.7605,0.00012689,1.732e-05,0.0,0 STARLINK-4143,1 53029U 22076AV  24032.77104218  .00001732  00000-0  12689-3 0  9999,2 53029  53.2161 276.9556 0001595  89.3570 270.7605 15.08836439 87819,6917.891,95.438,540.86,538.653,0.0
53029.0,STARLINK-4143,PAYLOAD,2024-02-02 19:56:28,15.08840293,0.0001602,53.2162,272.1978,87.7803,272.3373,9.9418e-05,1.295e-05,0.0,0 STARLINK-4143,1 53029U 22076AV  24033.83088207  .00001295  00000-0  99418-4 0  9996,2 53029  53.2162 272.1978 0001602  87.7803 272.3373 15.08840293 87976,6917.879,95.438,540.853,538.636,0.0
53029.0,STARLINK-4143,PAYLOAD,2024-02-02 21:31:51,15.08840407,0.0001598,53.2163,271.9006,86.6789,273.4386,9.3326e-05,1.198e-05,0.0,0 STARLINK-4143,1 53029U 22076AV  24033.89712188  .00001198  00000-0  93326-4 0  9998,2 53029  53.2163 271.9006 0001598  86.6789 273.4386 15.08840407 87514,6917.879,95.438,540.85,538.639,0.0
53029.0,STARLINK-4143,PAYLOAD,2024-02-03 00:42:37,15.08843594,0.0001594,53.2161,271.3057,88.0922,272.0253,0.00013321,1.833e-05,0.0,0 STARLINK-4143,1 53029U 22076AV  24034.02960011  .00001833  00000-0  13321-3 0  9996,2 53029  53.2161 271.3057 0001594  88.0922 272.0253 15.08843594 87533,6917.869,95.437,540.837,538.632,0.0
53029.0,STARLINK-4143,PAYLOAD,2024-02-03 21:22:38,15.08835295,0.0001679,53.2164,267.44,94.5726,265.5458,2.2345e-05,6.8e-07,0.0,0 STARLINK-4143,1 53029U 22076AV  24034.89072584  .00000068  00000-0  22345-4 0  9996,2 53029  53.2164 267.4400 0001679  94.5726 265.5458 15.08835295 88132,6917.895,95.438,540.921,538.598,0.0
53029.0,STARLINK-4143,PAYLOAD,2024-02-04 00:33:25,15.08839326,0.0001624,53.2163,266.8427,100.6868,259.4307,4.6637e-05,4.54e-06,0.0,0 STARLINK-4143,1 53029U 22076AV  24035.02320689  .00000454  00000-0  46637-4 0  9993,2 53029  53.2163 266.8427 0001624 100.6868 259.4307 15.08839326 87682,6917.882,95.438,540.871,538.624,0.0
53029.0,STARLINK-4143,PAYLOAD,2024-02-04 19:38:00,15.08867999,0.0001029,53.2147,263.2814,95.0758,265.0351,0.00023142,3.4e-05,0.0,0 STARLINK-4143,1 53029U 22076AV  24035.81805701  .00003400  00000-0  23142-3 0  9992,2 53029  53.2147 263.2814 0001029  95.0758 265.0351 15.08867999 88274,6917.795,95.436,540.372,538.948,0.0
53029.0,STARLINK-4143,PAYLOAD,2024-02-04 22:48:45,15.08872288,0.0001631,53.2168,262.6807,78.9923,281.1253,0.00029464,4.408e-05,0.0,0 STARLINK-4143,1 53029U 22076AV  24035.95053230  .00004408  00000-0  29464-3 0  9991,2 53029  53.2168 262.6807 0001631  78.9923 281.1253 15.08872288 87822,6917.782,95.436,540.775,538.518,0.0
53029.0,STARLINK-4143,PAYLOAD,2024-02-05 08:21:06,15.08849126,0.000157,53.2153,260.8946,81.5966,278.5204,8.2751e-05,1.03e-05,0.0,0 STARLINK-4143,1 53029U 22076AV  24036.34798882  .00001030  00000-0  82751-4 0  9991,2 53029  53.2153 260.8946 0001570  81.5966 278.5204 15.08849126 88359,6917.852,95.437,540.804,538.631,0.0
